MALLIGYONG-1            
1 58400U 23179A   24267.16938424  .00008571  00000+0  39099-3 0  9990
2 58400  97.3865 152.3321 0010434  90.5009 269.7423 15.20816147 46625
